STARLINK-11619 [DTC]    
1 63272U 25053H   26068.52813002  .00147125  00000+0  11285-2 0  9996
2 63272  42.9999 113.2472 0001733 323.8604  36.2147 15.70868644 57648
ISS OBJECT XU           
1 66908U 98067XU  26068.19895314  .00161175  00000+0  13351-2 0  9996
2 66908  51.6248  68.1144 0004893  76.6698 283.4844 15.69191892 15108
